37740,GLOBALSTAR M088,2011,114.08,700.0,+,51.97,Active,1,LEO,Kazakhstan,Globalstar,Commercial,Communications,Soyuz,1 37740U 11033B   24025.40222573 -.00000079  00000+0  14085-3 0  9994,2 37740  51.9741  59.4509 0000499 155.5277 307.1551 12.62264252578145,12.62264252,4.99e-05,LEO
37741,GLOBALSTAR M091,2011,114.08,700.0,+,52.0,Active,1,LEO,Kazakhstan,Globalstar,Commercial,Communications,Soyuz,1 37741U 11033C   24025.17559059 -.00000092  00000+0  68203-4 0  9998,2 37741  52.0018  22.7872 0000241 155.1102 296.5200 12.62270383578907,12.62270383,2.41e-05,LEO
37742,GLOBALSTAR M085,2011,114.08,700.0,+,51.98,Active,1,LEO,Kazakhstan,Globalstar,Commercial,Communications,Soyuz,1 37742U 11033D   24025.08105622 -.00000081  00000+0  12869-3 0  9996,2 37742  51.9893 334.5661 0000245  92.8061 348.7318 12.62266805579402,12.62266805,2.45e-05,LEO
37743,GLOBALSTAR M081,2011,114.08,700.0,+,52.0,Active,1,LEO,Kazakhstan,Globalstar,Commercial,Communications,Soyuz,1 37743U 11033E   24025.19197993 -.00000091  00000+0  69756-4 0  9990,2 37743  51.9988 336.7006 0000096  34.6721  71.4991 12.62268667579568,12.62268667,9.6e-06,LEO
37744,GLOBALSTAR M089,2011,114.08,700.0,+,51.99,Active,1,LEO,Kazakhstan,Globalstar,Commercial,Communications,Soyuz,1 37744U 11033F   24025.07334692 -.00000055  00000+0  26969-3 0  9995,2 37744  51.9938 291.3857 0000793  44.4262  63.1680 12.62271874580397,12.62271874,7.93e-05,LEO
37748,SES-3,2011,1436.1,3112.0,+,0.04,Active,1,GSO,Kazakhstan,USA,Commercial,Communications,Proton,1 37748U 11035A   24025.52509483 -.00000100  00000+0  00000+0 0  9998,2 37748   0.0441 299.6780 0002996 358.6474 272.0111  1.00271733 45832,1.00271733,0.0002996,GEO
37749,KAZSAT-2,2011,1436.09,1300.0,+,0.03,Active,1,GSO,Kazakhstan,Kazakhstan,Commercial,Communications,Proton,1 37749U 11035B   24025.41962324 -.00000197  00000+0  00000+0 0  9990,2 37749   0.0263 155.2184 0000409 242.1408 324.4282  1.00272211 44620,1.00272211,4.09e-05,GEO
37763,BEIDOU-2 IGSO-4,2011,1435.84,4200.0,+,54.55,Active,1,GSO,PRC,China,Government/Military,Navigation (Global or Regional Positioning),Long March,1 37763U 11038A   24024.85777116 -.00000061  00000+0  00000+0 0  9999,2 37763  54.5546 173.4562 0117662 226.6699 126.5023  1.00289384 45876,1.00289384,0.0117662,GSO
37765,SJ-11-02,2011,98.46,-1.0,+,98.38,Active,1,LEO,PRC,China,Government,Technology Development,Long March,1 37765U 11039A   24025.62173160  .00001155  00000+0  23707-3 0  9994,2 37765  98.3807 256.7024 0011939 111.0506 303.2584 14.62558198666178,14.62558198,0.0011939,LEO
37775,ASTRA 1N,2011,1436.09,5350.0,+,0.06,Active,1,GSO,French Guiana,SES,Commercial,Communications,Ariane,1 37775U 11041A   24025.54937418  .00000120  00000+0  00000+0 0  9991,2 37775   0.0567  32.6994 0004088 317.5462 351.0327  1.00271947 35763,1.00271947,0.0004088,GEO
37776,BSAT-3C (JCSAT-110R),2011,1436.14,2910.0,B,0.06,Active,1,GSO,French Guiana,Japan,Commercial,Communications,Ariane,1 37776U 11041B   24025.56438223 -.00000350  00000+0  00000+0 0  9990,2 37776   0.0554 278.2914 0000466  75.6004  83.5581  1.00268504 41716,1.00268504,4.66e-05,GEO
37779,PAKSAT-1R,2011,1436.08,5120.0,+,0.02,Active,1,GSO,PRC,Pakistan,Commercial/Government,Communications,Long March,1 37779U 11042A   24025.55311616  .00000155  00000+0  00000+0 0  9991,2 37779   0.0166  79.0837 0001073 213.3672  68.9388  1.00272822 45710,1.00272822,0.0001073,GEO
37781,HAIYANG-2A,2011,104.44,1500.0,+,99.32,Active,1,LEO,PRC,China,Government,Earth Observation,Long March,1 37781U 11043A   24025.58586638  .00000025  00000+0  67471-4 0  9992,2 37781  99.3249  31.4307 0001537  94.2436 265.8891 13.78765797626290,13.78765797,0.0001537,LEO
37790,NIGERIASAT-X,2011,98.67,100.0,+,97.83,Active,1,LEO,Russia,Nigeria,Government,Earth Observation/Technology Development,Dnepr,1 37790U 11044C   24025.59130766  .00000656  00000+0  14763-3 0  9996,2 37790  97.8322  46.5912 0011979 201.1524 158.9183 14.59382412662680,14.59382412,0.0011979,LEO
