[{"OBJECT_NAME":"GLOBALSTAR M088","OBJECT_ID":"2011-033B","EPOCH":"2024-01-25T09:39:12.303072","MEAN_MOTION":12.62264252,"ECCENTRICITY":4.99e-5,"INCLINATION":51.9741,"RA_OF_ASC_NODE":59.4509,"ARG_OF_PERICENTER":155.5277,"MEAN_ANOMALY":307.1551,"EPHEMERIS_TYPE":0,"CLASSIFICATION_TYPE":"U","NORAD_CAT_ID":37740,"ELEMENT_SET_NO":999,"REV_AT_EPOCH":57814,"BSTAR":0.00014085,"MEAN_MOTION_DOT":-7.9e-7,"MEAN_MOTION_DDOT":0},{"OBJECT_NAME":"GLOBALSTAR M091","OBJECT_ID":"2011-033C","EPOCH":"2024-01-25T04:12:51.026976","MEAN_MOTION":12.62270383,"ECCENTRICITY":2.41e-5,"INCLINATION":52.0018,"RA_OF_ASC_NODE":22.7872,"ARG_OF_PERICENTER":155.1102,"MEAN_ANOMALY":296.52,"EPHEMERIS_TYPE":0,"CLASSIFICATION_TYPE":"U","NORAD_CAT_ID":37741,"ELEMENT_SET_NO":999,"REV_AT_EPOCH":57890,"BSTAR":6.8203e-5,"MEAN_MOTION_DOT":-9.2e-7,"MEAN_MOTION_DDOT":0},{"OBJECT_NAME":"GLOBALSTAR M085","OBJECT_ID":"2011-033D","EPOCH":"2024-01-25T01:56:43.257408","MEAN_MOTION":12.62266805,"ECCENTRICITY":2.45e-5,"INCLINATION":51.9893,"RA_OF_ASC_NODE":334.5661,"ARG_OF_PERICENTER":92.8061,"MEAN_ANOMALY":348.7318,"EPHEMERIS_TYPE":0,"CLASSIFICATION_TYPE":"U","NORAD_CAT_ID":37742,"ELEMENT_SET_NO":999,"REV_AT_EPOCH":57940,"BSTAR":0.00012869,"MEAN_MOTION_DOT":-8.1e-7,"MEAN_MOTION_DDOT":0},{"OBJECT_NAME":"GLOBALSTAR M081","OBJECT_ID":"2011-033E","EPOCH":"2024-01-25T04:36:27.065952","MEAN_MOTION":12.62268667,"ECCENTRICITY":9.6e-6,"INCLINATION":51.9988,"RA_OF_ASC_NODE":336.7006,"ARG_OF_PERICENTER":34.6721,"MEAN_ANOMALY":71.4991,"EPHEMERIS_TYPE":0,"CLASSIFICATION_TYPE":"U","NORAD_CAT_ID":37743,"ELEMENT_SET_NO":999,"REV_AT_EPOCH":57956,"BSTAR":6.9756e-5,"MEAN_MOTION_DOT":-9.1e-7,"MEAN_MOTION_DDOT":0},{"OBJECT_NAME":"GLOBALSTAR M089","OBJECT_ID":"2011-033F","EPOCH":"2024-01-25T01:45:37.173888","MEAN_MOTION":12.62271874,"ECCENTRICITY":7.93e-5,"INCLINATION":51.9938,"RA_OF_ASC_NODE":291.3857,"ARG_OF_PERICENTER":44.4262,"MEAN_ANOMALY":63.168,"EPHEMERIS_TYPE":0,"CLASSIFICATION_TYPE":"U","NORAD_CAT_ID":37744,"ELEMENT_SET_NO":999,"REV_AT_EPOCH":58039,"BSTAR":0.00026969,"MEAN_MOTION_DOT":-5.5e-7,"MEAN_MOTION_DDOT":0},{"OBJECT_NAME":"SES-3","OBJECT_ID":"2011-035A","EPOCH":"2024-01-25T12:36:08.193312","MEAN_MOTION":1.00271733,"ECCENTRICITY":0.0002996,"INCLINATION":0.0441,"RA_OF_ASC_NODE":299.678,"ARG_OF_PERICENTER":358.6474,"MEAN_ANOMALY":272.0111,"EPHEMERIS_TYPE":0,"CLASSIFICATION_TYPE":"U","NORAD_CAT_ID":37748,"ELEMENT_SET_NO":999,"REV_AT_EPOCH":4583,"BSTAR":0,"MEAN_MOTION_DOT":-1.0e-6,"MEAN_MOTION_DDOT":0},{"OBJECT_NAME":"KAZSAT-2","OBJECT_ID":"2011-035B","EPOCH":"2024-01-25T10:04:15.447936","MEAN_MOTION":1.00272211,"ECCENTRICITY":4.09e-5,"INCLINATION":0.0263,"RA_OF_ASC_NODE":155.2184,"ARG_OF_PERICENTER":242.1408,"MEAN_ANOMALY":324.4282,"EPHEMERIS_TYPE":0,"CLASSIFICATION_TYPE":"U","NORAD_CAT_ID":37749,"ELEMENT_SET_NO":999,"REV_AT_EPOCH":4462,"BSTAR":0,"MEAN_MOTION_DOT":-1.97e-6,"MEAN_MOTION_DDOT":0},{"OBJECT_NAME":"BEIDOU-2 IGSO-4","OBJECT_ID":"2011-038A","EPOCH":"2024-01-24T20:35:11.428224","MEAN_MOTION":1.00289384,"ECCENTRICITY":0.0117662,"INCLINATION":54.5546,"RA_OF_ASC_NODE":173.4562,"ARG_OF_PERICENTER":226.6699,"MEAN_ANOMALY":126.5023,"EPHEMERIS_TYPE":0,"CLASSIFICATION_TYPE":"U","NORAD_CAT_ID":37763,"ELEMENT_SET_NO":999,"REV_AT_EPOCH":4587,"BSTAR":0,"MEAN_MOTION_DOT":-6.1e-7,"MEAN_MOTION_DDOT":0},{"OBJECT_NAME":"SJ-11-02","OBJECT_ID":"2011-039A","EPOCH":"2024-01-25T14:55:17.610240","MEAN_MOTION":14.62558198,"ECCENTRICITY":0.0011939,"INCLINATION":98.3807,"RA_OF_ASC_NODE":256.7024,"ARG_OF_PERICENTER":111.0506,"MEAN_ANOMALY":303.2584,"EPHEMERIS_TYPE":0,"CLASSIFICATION_TYPE":"U","NORAD_CAT_ID":37765,"ELEMENT_SET_NO":999,"REV_AT_EPOCH":66626,"BSTAR":0.00023707,"MEAN_MOTION_DOT":1.155e-5,"MEAN_MOTION_DDOT":0},{"OBJECT_NAME":"ASTRA 1N","OBJECT_ID":"2011-041A","EPOCH":"2024-01-25T13:11:05.929152","MEAN_MOTION":1.00271947,"ECCENTRICITY":0.0004088,"INCLINATION":0.0567,"RA_OF_ASC_NODE":32.6994,"ARG_OF_PERICENTER":317.5462,"MEAN_ANOMALY":351.0327,"EPHEMERIS_TYPE":0,"CLASSIFICATION_TYPE":"U","NORAD_CAT_ID":37775,"ELEMENT_SET_NO":999,"REV_AT_EPOCH":3576,"BSTAR":0,"MEAN_MOTION_DOT":1.2e-6,"MEAN_MOTION_DDOT":0},{"OBJECT_NAME":"BSAT-3C (JCSAT-110R)","OBJECT_ID":"2011-041B","EPOCH":"2024-01-25T13:32:42.624672","MEAN_MOTION":1.00268504,"ECCENTRICITY":4.66e-5,"INCLINATION":0.0554,"RA_OF_ASC_NODE":278.2914,"ARG_OF_PERICENTER":75.6004,"MEAN_ANOMALY":83.5581,"EPHEMERIS_TYPE":0,"CLASSIFICATION_TYPE":"U","NORAD_CAT_ID":37776,"ELEMENT_SET_NO":999,"REV_AT_EPOCH":4171,"BSTAR":0,"MEAN_MOTION_DOT":-3.5e-6,"MEAN_MOTION_DDOT":0},{"OBJECT_NAME":"PAKSAT-1R","OBJECT_ID":"2011-042A","EPOCH":"2024-01-25T13:16:29.236224","MEAN_MOTION":1.00272822,"ECCENTRICITY":0.0001073,"INCLINATION":0.0166,"RA_OF_ASC_NODE":79.0837,"ARG_OF_PERICENTER":213.3672,"MEAN_ANOMALY":68.9388,"EPHEMERIS_TYPE":0,"CLASSIFICATION_TYPE":"U","NORAD_CAT_ID":37779,"ELEMENT_SET_NO":999,"REV_AT_EPOCH":4571,"BSTAR":0,"MEAN_MOTION_DOT":1.55e-6,"MEAN_MOTION_DDOT":0},{"OBJECT_NAME":"HAIYANG-2A","OBJECT_ID":"2011-043A","EPOCH":"2024-01-25T14:03:38.855232","MEAN_MOTION":13.78765797,"ECCENTRICITY":0.0001537,"INCLINATION":99.3249,"RA_OF_ASC_NODE":31.4307,"ARG_OF_PERICENTER":94.2436,"MEAN_ANOMALY":265.8891,"EPHEMERIS_TYPE":0,"CLASSIFICATION_TYPE":"U","NORAD_CAT_ID":37781,"ELEMENT_SET_NO":999,"REV_AT_EPOCH":62654,"BSTAR":6.7471e-5,"MEAN_MOTION_DOT":2.5e-7,"MEAN_MOTION_DDOT":0},{"OBJECT_NAME":"NIGERIASAT-X","OBJECT_ID":"2011-044C","EPOCH":"2024-01-25T14:11:28.981824","MEAN_MOTION":14.59382412,"ECCENTRICITY":0.0011979,"INCLINATION":97.8322,"RA_OF_ASC_NODE":46.5912,"ARG_OF_PERICENTER":201.1524,"MEAN_ANOMALY":158.9183,"EPHEMERIS_TYPE":0,"CLASSIFICATION_TYPE":"U","NORAD_CAT_ID":37790,"ELEMENT_SET_NO":999,"REV_AT_EPOCH":66268,"BSTAR":0.00014763,"MEAN_MOTION_DOT":6.56e-6,"MEAN_MOTION_DDOT":0}]
